ICEYE-X72               
1 68504U 26067CS  26194.83198448  .00116655  00000+0  10305-1 0  9994
2 68504  97.7626 152.8158 0001762 163.4479 196.6800 14.95744562 15702
ICEYE-X78               
1 68995U 26100R   26194.63721204  .00000314  00000+0  36634-4 0  9996
2 68995  97.7336  91.5990 0003676  58.3797 301.7780 14.91810468 10647
ICEYE-X82               
1 68996U 26100S   26194.65875917  .00001430  00000+0  14862-3 0  9998
2 68996  97.7332  91.5657 0005750  67.7223 292.4605 14.91420089 10645
