{"fetched_at":"2026-07-14T06:34:49.463Z","source":"https://celestrak.org/NORAD/elements/gp.php?NAME=ICEYE&FORMAT=JSON","constellation":"iceye","records":[{"OBJECT_NAME":"ICEYE-X72","OBJECT_ID":"2026-067CS","EPOCH":"2026-07-13T19:58:03.459072","CLASSIFICATION_TYPE":"U","MEAN_MOTION":14.95744562,"ECCENTRICITY":0.0001762,"INCLINATION":97.7626,"RA_OF_ASC_NODE":152.8158,"ARG_OF_PERICENTER":163.4479,"MEAN_ANOMALY":196.68,"EPHEMERIS_TYPE":0,"NORAD_CAT_ID":68504,"ELEMENT_SET_NO":999,"REV_AT_EPOCH":1570,"BSTAR":0.010305,"MEAN_MOTION_DOT":0.00116655,"MEAN_MOTION_DDOT":0},{"OBJECT_NAME":"ICEYE-X78","OBJECT_ID":"2026-100R","EPOCH":"2026-07-13T15:17:35.120256","CLASSIFICATION_TYPE":"U","MEAN_MOTION":14.91810468,"ECCENTRICITY":0.0003676,"INCLINATION":97.7336,"RA_OF_ASC_NODE":91.599,"ARG_OF_PERICENTER":58.3797,"MEAN_ANOMALY":301.778,"EPHEMERIS_TYPE":0,"NORAD_CAT_ID":68995,"ELEMENT_SET_NO":999,"REV_AT_EPOCH":1064,"BSTAR":0.000036634,"MEAN_MOTION_DOT":0.00000314,"MEAN_MOTION_DDOT":0},{"OBJECT_NAME":"ICEYE-X82","OBJECT_ID":"2026-100S","EPOCH":"2026-07-13T15:48:36.792288","CLASSIFICATION_TYPE":"U","MEAN_MOTION":14.91420089,"ECCENTRICITY":0.000575,"INCLINATION":97.7332,"RA_OF_ASC_NODE":91.5657,"ARG_OF_PERICENTER":67.7223,"MEAN_ANOMALY":292.4605,"EPHEMERIS_TYPE":0,"NORAD_CAT_ID":68996,"ELEMENT_SET_NO":999,"REV_AT_EPOCH":1064,"BSTAR":0.00014862,"MEAN_MOTION_DOT":0.0000143,"MEAN_MOTION_DDOT":0}]}
